[{"OBJECT_NAME":"ONEWEB-0107","OBJECT_ID":"2021-025G","EPOCH":"2026-01-26T06:17:12.296832","MEAN_MOTION":13.13470663,"ECCENTRICITY":0.00018109,"INCLINATION":87.9023,"RA_OF_ASC_NODE":348.4082,"ARG_OF_PERICENTER":90.3783,"MEAN_ANOMALY":269.7554,"EPHEMERIS_TYPE":0,"CLASSIFICATION_TYPE":"U","NORAD_CAT_ID":48048,"ELEMENT_SET_NO":999,"REV_AT_EPOCH":23489,"BSTAR":0.0012066584,"MEAN_MOTION_DOT":4.53e-6,"MEAN_MOTION_DDOT":0},{"OBJECT_NAME":"ONEWEB-0101","OBJECT_ID":"2021-025H","EPOCH":"2026-01-26T07:13:14.914848","MEAN_MOTION":13.13469956,"ECCENTRICITY":0.00016821,"INCLINATION":87.9016,"RA_OF_ASC_NODE":348.4302,"ARG_OF_PERICENTER":85.6109,"MEAN_ANOMALY":274.5212,"EPHEMERIS_TYPE":0,"CLASSIFICATION_TYPE":"U","NORAD_CAT_ID":48049,"ELEMENT_SET_NO":999,"REV_AT_EPOCH":23487,"BSTAR":-0.0010184935,"MEAN_MOTION_DOT":-3.59e-6,"MEAN_MOTION_DDOT":0},{"OBJECT_NAME":"ONEWEB-0113","OBJECT_ID":"2021-025J","EPOCH":"2026-01-26T07:11:31.414560","MEAN_MOTION":13.13988081,"ECCENTRICITY":0.00019312,"INCLINATION":87.9021,"RA_OF_ASC_NODE":348.3538,"ARG_OF_PERICENTER":75.9358,"MEAN_ANOMALY":284.1986,"EPHEMERIS_TYPE":0,"CLASSIFICATION_TYPE":"U","NORAD_CAT_ID":48050,"ELEMENT_SET_NO":999,"REV_AT_EPOCH":23497,"BSTAR":-0.00051684662,"MEAN_MOTION_DOT":-1.77e-6,"MEAN_MOTION_DDOT":0},{"OBJECT_NAME":"ONEWEB-0112","OBJECT_ID":"2021-025K","EPOCH":"2026-01-26T06:24:30.304224","MEAN_MOTION":13.13469301,"ECCENTRICITY":0.00015923,"INCLINATION":87.9022,"RA_OF_ASC_NODE":348.4047,"ARG_OF_PERICENTER":87.3873,"MEAN_ANOMALY":272.7438,"EPHEMERIS_TYPE":0,"CLASSIFICATION_TYPE":"U","NORAD_CAT_ID":48051,"ELEMENT_SET_NO":999,"REV_AT_EPOCH":23496,"BSTAR":0.00091386035,"MEAN_MOTION_DOT":3.46e-6,"MEAN_MOTION_DDOT":0},{"OBJECT_NAME":"ONEWEB-0156","OBJECT_ID":"2021-025L","EPOCH":"2026-01-26T06:36:40.434336","MEAN_MOTION":13.13469312,"ECCENTRICITY":0.0001854,"INCLINATION":87.9021,"RA_OF_ASC_NODE":348.4142,"ARG_OF_PERICENTER":84.8016,"MEAN_ANOMALY":275.3324,"EPHEMERIS_TYPE":0,"CLASSIFICATION_TYPE":"U","NORAD_CAT_ID":48052,"ELEMENT_SET_NO":999,"REV_AT_EPOCH":23494,"BSTAR":1.6375456e-5,"MEAN_MOTION_DOT":1.9e-7,"MEAN_MOTION_DDOT":0},{"OBJECT_NAME":"ONEWEB-0161","OBJECT_ID":"2021-025M","EPOCH":"2026-01-26T06:00:07.865856","MEAN_MOTION":13.13469958,"ECCENTRICITY":0.00018344,"INCLINATION":87.9015,"RA_OF_ASC_NODE":348.4318,"ARG_OF_PERICENTER":88.0256,"MEAN_ANOMALY":272.1084,"EPHEMERIS_TYPE":0,"CLASSIFICATION_TYPE":"U","NORAD_CAT_ID":48053,"ELEMENT_SET_NO":999,"REV_AT_EPOCH":23487,"BSTAR":-4.2610673e-5,"MEAN_MOTION_DOT":-3.0e-8,"MEAN_MOTION_DDOT":0},{"OBJECT_NAME":"ONEWEB-0158","OBJECT_ID":"2021-025N","EPOCH":"2026-01-26T06:51:19.410048","MEAN_MOTION":13.13469981,"ECCENTRICITY":0.00016035,"INCLINATION":87.9023,"RA_OF_ASC_NODE":348.4119,"ARG_OF_PERICENTER":72.3112,"MEAN_ANOMALY":287.8193,"EPHEMERIS_TYPE":0,"CLASSIFICATION_TYPE":"U","NORAD_CAT_ID":48054,"ELEMENT_SET_NO":999,"REV_AT_EPOCH":23500,"BSTAR":-0.00015461456,"MEAN_MOTION_DOT":-4.4e-7,"MEAN_MOTION_DDOT":0},{"OBJECT_NAME":"ONEWEB-0157","OBJECT_ID":"2021-025P","EPOCH":"2026-01-26T07:27:52.963488","MEAN_MOTION":13.13471456,"ECCENTRICITY":0.0001848,"INCLINATION":87.9026,"RA_OF_ASC_NODE":348.4117,"ARG_OF_PERICENTER":94.2492,"MEAN_ANOMALY":265.8848,"EPHEMERIS_TYPE":0,"CLASSIFICATION_TYPE":"U","NORAD_CAT_ID":48055,"ELEMENT_SET_NO":999,"REV_AT_EPOCH":23494,"BSTAR":-0.00029835733,"MEAN_MOTION_DOT":-9.6e-7,"MEAN_MOTION_DDOT":0},{"OBJECT_NAME":"ONEWEB-0162","OBJECT_ID":"2021-025Q","EPOCH":"2026-01-26T03:14:09.771648","MEAN_MOTION":13.13469197,"ECCENTRICITY":0.00019045,"INCLINATION":87.9023,"RA_OF_ASC_NODE":348.4506,"ARG_OF_PERICENTER":82.237,"MEAN_ANOMALY":277.8975,"EPHEMERIS_TYPE":0,"CLASSIFICATION_TYPE":"U","NORAD_CAT_ID":48056,"ELEMENT_SET_NO":999,"REV_AT_EPOCH":23489,"BSTAR":-0.00077026823,"MEAN_MOTION_DOT":-2.69e-6,"MEAN_MOTION_DDOT":0},{"OBJECT_NAME":"ONEWEB-0155","OBJECT_ID":"2021-025R","EPOCH":"2026-01-26T07:03:29.006208","MEAN_MOTION":13.13468924,"ECCENTRICITY":0.00016594,"INCLINATION":87.9017,"RA_OF_ASC_NODE":348.4215,"ARG_OF_PERICENTER":86.5625,"MEAN_ANOMALY":273.5694,"EPHEMERIS_TYPE":0,"CLASSIFICATION_TYPE":"U","NORAD_CAT_ID":48057,"ELEMENT_SET_NO":999,"REV_AT_EPOCH":23505,"BSTAR":-0.00083747171,"MEAN_MOTION_DOT":-2.93e-6,"MEAN_MOTION_DDOT":0},{"OBJECT_NAME":"ONEWEB-0149","OBJECT_ID":"2021-025S","EPOCH":"2026-01-26T07:35:12.208128","MEAN_MOTION":13.13470948,"ECCENTRICITY":0.00020004,"INCLINATION":87.902,"RA_OF_ASC_NODE":348.4116,"ARG_OF_PERICENTER":82.4203,"MEAN_ANOMALY":277.7153,"EPHEMERIS_TYPE":0,"CLASSIFICATION_TYPE":"U","NORAD_CAT_ID":48058,"ELEMENT_SET_NO":999,"REV_AT_EPOCH":23486,"BSTAR":-0.00014469865,"MEAN_MOTION_DOT":-4.0e-7,"MEAN_MOTION_DDOT":0},{"OBJECT_NAME":"ONEWEB-0148","OBJECT_ID":"2021-025T","EPOCH":"2026-01-26T06:41:34.633248","MEAN_MOTION":13.13469901,"ECCENTRICITY":0.00023653,"INCLINATION":87.9014,"RA_OF_ASC_NODE":348.4358,"ARG_OF_PERICENTER":87.6424,"MEAN_ANOMALY":272.4976,"EPHEMERIS_TYPE":0,"CLASSIFICATION_TYPE":"U","NORAD_CAT_ID":48059,"ELEMENT_SET_NO":999,"REV_AT_EPOCH":23498,"BSTAR":0.00044437259,"MEAN_MOTION_DOT":1.75e-6,"MEAN_MOTION_DDOT":0},{"OBJECT_NAME":"ONEWEB-0160","OBJECT_ID":"2021-025U","EPOCH":"2026-01-26T07:05:56.427936","MEAN_MOTION":13.1347099,"ECCENTRICITY":0.00017998,"INCLINATION":87.9015,"RA_OF_ASC_NODE":348.4301,"ARG_OF_PERICENTER":56.3311,"MEAN_ANOMALY":303.799,"EPHEMERIS_TYPE":0,"CLASSIFICATION_TYPE":"U","NORAD_CAT_ID":48060,"ELEMENT_SET_NO":999,"REV_AT_EPOCH":23493,"BSTAR":-0.00072059263,"MEAN_MOTION_DOT":-2.5e-6,"MEAN_MOTION_DDOT":0},{"OBJECT_NAME":"ONEWEB-0163","OBJECT_ID":"2021-025V","EPOCH":"2026-01-26T06:43:59.664288","MEAN_MOTION":13.13469581,"ECCENTRICITY":0.00017445,"INCLINATION":87.9022,"RA_OF_ASC_NODE":348.4225,"ARG_OF_PERICENTER":90.7418,"MEAN_ANOMALY":269.3911,"EPHEMERIS_TYPE":0,"CLASSIFICATION_TYPE":"U","NORAD_CAT_ID":48061,"ELEMENT_SET_NO":999,"REV_AT_EPOCH":23505,"BSTAR":-5.7636165e-5,"MEAN_MOTION_DOT":-8.0e-8,"MEAN_MOTION_DDOT":0},{"OBJECT_NAME":"ONEWEB-0159","OBJECT_ID":"2021-025W","EPOCH":"2026-01-26T06:31:49.715616","MEAN_MOTION":13.13470176,"ECCENTRICITY":0.00018892,"INCLINATION":87.9023,"RA_OF_ASC_NODE":348.4089,"ARG_OF_PERICENTER":88.0005,"MEAN_ANOMALY":272.134,"EPHEMERIS_TYPE":0,"CLASSIFICATION_TYPE":"U","NORAD_CAT_ID":48062,"ELEMENT_SET_NO":999,"REV_AT_EPOCH":23497,"BSTAR":0.00081685874,"MEAN_MOTION_DOT":3.11e-6,"MEAN_MOTION_DDOT":0},{"OBJECT_NAME":"ONEWEB-0164","OBJECT_ID":"2021-025X","EPOCH":"2026-01-26T06:04:58.728000","MEAN_MOTION":13.13469579,"ECCENTRICITY":0.00017431,"INCLINATION":87.9023,"RA_OF_ASC_NODE":348.4191,"ARG_OF_PERICENTER":79.3228,"MEAN_ANOMALY":280.8098,"EPHEMERIS_TYPE":0,"CLASSIFICATION_TYPE":"U","NORAD_CAT_ID":48063,"ELEMENT_SET_NO":999,"REV_AT_EPOCH":23495,"BSTAR":0.00014324216,"MEAN_MOTION_DOT":6.5e-7,"MEAN_MOTION_DDOT":0}]
