ONEWEB-0107             
1 48048U 21025G   26026.26194788  .00000453  00000+0  12067-2 0  9994
2 48048  87.9023 348.4082 0001810  90.3783 269.7554 13.13470663234892
ONEWEB-0101             
1 48049U 21025H   26026.30086707 -.00000359  00000+0 -10185-2 0  9997
2 48049  87.9016 348.4302 0001682  85.6109 274.5212 13.13469956234872
ONEWEB-0113             
1 48050U 21025J   26026.29966915 -.00000177  00000+0 -51685-3 0  9994
2 48050  87.9021 348.3538 0001931  75.9358 284.1986 13.13988081234976
ONEWEB-0112             
1 48051U 21025K   26026.26701741  .00000346  00000+0  91386-3 0  9994
2 48051  87.9022 348.4047 0001592  87.3873 272.7438 13.13469301234969
ONEWEB-0156             
1 48052U 21025L   26026.27546799  .00000019  00000+0  16375-4 0  9999
2 48052  87.9021 348.4142 0001854  84.8016 275.3324 13.13469312234940
ONEWEB-0161             
1 48053U 21025M   26026.25009104 -.00000003  00000+0 -42611-4 0  9999
2 48053  87.9015 348.4318 0001834  88.0256 272.1084 13.13469958234875
ONEWEB-0158             
1 48054U 21025N   26026.28564132 -.00000044  00000+0 -15461-3 0  9997
2 48054  87.9023 348.4119 0001603  72.3112 287.8193 13.13469981235001
ONEWEB-0157             
1 48055U 21025P   26026.31102967 -.00000096  00000+0 -29836-3 0  9994
2 48055  87.9026 348.4117 0001848  94.2492 265.8848 13.13471456234943
ONEWEB-0162             
1 48056U 21025Q   26026.13483532 -.00000269  00000+0 -77027-3 0  9992
2 48056  87.9023 348.4506 0001904  82.2370 277.8975 13.13469197234895
ONEWEB-0155             
1 48057U 21025R   26026.29408572 -.00000293  00000+0 -83747-3 0  9994
2 48057  87.9017 348.4215 0001659  86.5625 273.5694 13.13468924235050
ONEWEB-0149             
1 48058U 21025S   26026.31611352 -.00000040  00000+0 -14470-3 0  9997
2 48058  87.9020 348.4116 0002000  82.4203 277.7153 13.13470948234866
ONEWEB-0148             
1 48059U 21025T   26026.27887307  .00000175  00000+0  44437-3 0  9991
2 48059  87.9014 348.4358 0002365  87.6424 272.4976 13.13469901234989
ONEWEB-0160             
1 48060U 21025U   26026.29579199 -.00000250  00000+0 -72059-3 0  9999
2 48060  87.9015 348.4301 0001799  56.3311 303.7990 13.13470990234937
ONEWEB-0163             
1 48061U 21025V   26026.28055167 -.00000008  00000+0 -57636-4 0  9999
2 48061  87.9022 348.4225 0001744  90.7418 269.3911 13.13469581235059
ONEWEB-0159             
1 48062U 21025W   26026.27210319  .00000311  00000+0  81686-3 0  9997
2 48062  87.9023 348.4089 0001889  88.0005 272.1340 13.13470176234971
ONEWEB-0164             
1 48063U 21025X   26026.25345750  .00000065  00000+0  14324-3 0  9995
2 48063  87.9023 348.4191 0001743  79.3228 280.8098 13.13469579234954
